{"status":0,"sig":"a62f820ed730283342dceaf8e03d79b2","cities":[{"id":"2","name":"\u5317\u4eac","pid":"1","areacode":"10","hot":1,"pys":"BJ","pyf":"Beijing","pkg":"http:\/\/s.dianhua.cn\/pkg\/2.zip?v=106","ver":"106","size":"6109768"},{"id":"5","name":"\u5929\u6d25","pid":"2","areacode":"22","hot":1,"pys":"TJ","pyf":"Tianjin","pkg":"http:\/\/s.dianhua.cn\/pkg\/5.zip?v=104","ver":"104","size":"3713718"},{"id":"1","name":"\u4e0a\u6d77","pid":"9","areacode":"21","hot":1,"pys":"SH","pyf":"Shanghai","pkg":"http:\/\/s.dianhua.cn\/pkg\/1.zip?v=107","ver":"107","size":"5654772"},{"id":"6","name":"\u91cd\u5e86","pid":"22","areacode":"23","hot":1,"pys":"CQ","pyf":"Chongqing","pkg":"http:\/\/s.dianhua.cn\/pkg\/6.zip?v=104","ver":"104","size":"3452364"},{"id":"138","name":"\u5b89\u5e86","pid":"12","areacode":"556","hot":0,"pys":"AQ","pyf":"Anqing","pkg":"http:\/\/s.dianhua.cn\/pkg\/138.zip?v=102","ver":"102","size":"1453199"},{"id":"122","name":"\u868c\u57e0","pid":"12","areacode":"552","hot":0,"pys":"BB","pyf":"Bengbu","pkg":"http:\/\/s.dianhua.cn\/pkg\/122.zip?v=103","ver":"103","size":"1248255"},{"id":"266","name":"\u4eb3\u5dde","pid":"12","areacode":"558","hot":0,"pys":"BZ","pyf":"Bozhou","pkg":"http:\/\/s.dianhua.cn\/pkg\/266.zip?v=103","ver":"103","size":"1076474"},{"id":"243","name":"\u6c60\u5dde","pid":"12","areacode":"566","hot":0,"pys":"CZ","pyf":"Chizhou","pkg":"http:\/\/s.dianhua.cn\/pkg\/243.zip?v=103","ver":"103","size":"945683"},{"id":"158","name":"\u6ec1\u5dde","pid":"12","areacode":"550","hot":0,"pys":"CZ","pyf":"Chuzhou","pkg":"http:\/\/s.dianhua.cn\/pkg\/158.zip?v=104","ver":"104","size":"1173328"},{"id":"197","name":"\u961c\u9633","pid":"12","areacode":"558","hot":0,"pys":"FY","pyf":"Fuyang","pkg":"http:\/\/s.dianhua.cn\/pkg\/197.zip?v=102","ver":"102","size":"1308596"},{"id":"31","name":"\u5408\u80a5","pid":"12","areacode":"551","hot":0,"pys":"HF","pyf":"Hefei","pkg":"http:\/\/s.dianhua.cn\/pkg\/31.zip?v=103","ver":"103","size":"2150266"},{"id":"222","name":"\u6dee\u5317","pid":"12","areacode":"561","hot":0,"pys":"HB","pyf":"Huaibei","pkg":"http:\/\/s.dianhua.cn\/pkg\/222.zip?v=102","ver":"102","size":"2087011"},{"id":"165","name":"\u6dee\u5357","pid":"12","areacode":"554","hot":0,"pys":"HN","pyf":"Huainan","pkg":"http:\/\/s.dianhua.cn\/pkg\/165.zip?v=104","ver":"104","size":"1022672"},{"id":"82","name":"\u9ec4\u5c71","pid":"12","areacode":"559","hot":0,"pys":"HS","pyf":"Huangshan","pkg":"http:\/\/s.dianhua.cn\/pkg\/82.zip?v=104","ver":"104","size":"1172857"},{"id":"195","name":"\u516d\u5b89","pid":"12","areacode":"564","hot":0,"pys":"LA","pyf":"Liuan","pkg":"http:\/\/s.dianhua.cn\/pkg\/195.zip?v=103","ver":"103","size":"1164579"},{"id":"154","name":"\u9a6c\u978d\u5c71","pid":"12","areacode":"555","hot":0,"pys":"MAS","pyf":"Maanshan","pkg":"http:\/\/s.dianhua.cn\/pkg\/154.zip?v=103","ver":"103","size":"1068697"},{"id":"169","name":"\u5bbf\u5dde","pid":"12","areacode":"557","hot":0,"pys":"SZ","pyf":"Suzhouanhui","pkg":"http:\/\/s.dianhua.cn\/pkg\/169.zip?v=103","ver":"103","size":"1090402"},{"id":"254","name":"\u94dc\u9675","pid":"12","areacode":"562","hot":0,"pys":"TL","pyf":"Tongling","pkg":"http:\/\/s.dianhua.cn\/pkg\/254.zip?v=103","ver":"103","size":"873286"},{"id":"112","name":"\u829c\u6e56","pid":"12","areacode":"553","hot":0,"pys":"WH","pyf":"Wuhu","pkg":"http:\/\/s.dianhua.cn\/pkg\/112.zip?v=103","ver":"103","size":"1412985"},{"id":"186","name":"\u5ba3\u57ce","pid":"12","areacode":"563","hot":0,"pys":"XC","pyf":"Xuancheng","pkg":"http:\/\/s.dianhua.cn\/pkg\/186.zip?v=103","ver":"103","size":"1088815"},{"id":"22","name":"\u798f\u5dde","pid":"13","areacode":"591","hot":0,"pys":"FZ","pyf":"Fuzhou","pkg":"http:\/\/s.dianhua.cn\/pkg\/22.zip?v=104","ver":"104","size":"3251795"},{"id":"145","name":"\u9f99\u5ca9","pid":"13","areacode":"597","hot":0,"pys":"LY","pyf":"Longyan","pkg":"http:\/\/s.dianhua.cn\/pkg\/145.zip?v=103","ver":"103","size":"1276015"},{"id":"193","name":"\u5357\u5e73","pid":"13","areacode":"599","hot":0,"pys":"NP","pyf":"Nanpin","pkg":"http:\/\/s.dianhua.cn\/pkg\/193.zip?v=104","ver":"104","size":"1314929"},{"id":"141","name":"\u5b81\u5fb7","pid":"13","areacode":"593","hot":0,"pys":"ND","pyf":"Ningde","pkg":"http:\/\/s.dianhua.cn\/pkg\/141.zip?v=103","ver":"103","size":"1336976"},{"id":"168","name":"\u8386\u7530","pid":"13","areacode":"594","hot":0,"pys":"PT","pyf":"Putian","pkg":"http:\/\/s.dianhua.cn\/pkg\/168.zip?v=104","ver":"104","size":"1221656"},{"id":"60","name":"\u6cc9\u5dde","pid":"13","areacode":"595","hot":0,"pys":"QZ","pyf":"Quanzhou","pkg":"http:\/\/s.dianhua.cn\/pkg\/60.zip?v=102","ver":"102","size":"2004932"},{"id":"134","name":"\u4e09\u660e","pid":"13","areacode":"598","hot":0,"pys":"SM","pyf":"Sanming","pkg":"http:\/\/s.dianhua.cn\/pkg\/134.zip?v=104","ver":"104","size":"1326949"},{"id":"19","name":"\u53a6\u95e8","pid":"13","areacode":"592","hot":0,"pys":"XM","pyf":"Xiamen","pkg":"http:\/\/s.dianhua.cn\/pkg\/19.zip?v=103","ver":"103","size":"3024588"},{"id":"175","name":"\u6f33\u5dde","pid":"13","areacode":"596","hot":0,"pys":"ZZ","pyf":"Zhangzhou","pkg":"http:\/\/s.dianhua.cn\/pkg\/175.zip?v=103","ver":"103","size":"1541009"},{"id":"212","name":"\u6f6e\u5dde","pid":"19","areacode":"768","hot":0,"pys":"CZ","pyf":"Chaozhou","pkg":"http:\/\/s.dianhua.cn\/pkg\/212.zip?v=104","ver":"104","size":"1074676"},{"id":"27","name":"\u4e1c\u839e","pid":"19","areacode":"769","hot":0,"pys":"DG","pyf":"Dongguan","pkg":"http:\/\/s.dianhua.cn\/pkg\/27.zip?v=104","ver":"104","size":"2354268"},{"id":"28","name":"\u4f5b\u5c71","pid":"19","areacode":"757","hot":0,"pys":"FS","pyf":"Foshan","pkg":"http:\/\/s.dianhua.cn\/pkg\/28.zip?v=104","ver":"104","size":"2348013"},{"id":"3","name":"\u5e7f\u5dde","pid":"19","areacode":"20","hot":1,"pys":"GZ","pyf":"Guangzhou","pkg":"http:\/\/s.dianhua.cn\/pkg\/3.zip?v=105","ver":"105","size":"4393903"},{"id":"182","name":"\u6cb3\u6e90","pid":"19","areacode":"762","hot":0,"pys":"HY","pyf":"Heyuan","pkg":"http:\/\/s.dianhua.cn\/pkg\/182.zip?v=104","ver":"104","size":"1113371"},{"id":"71","name":"\u60e0\u5dde","pid":"19","areacode":"752","hot":0,"pys":"HZ","pyf":"Huizhou","pkg":"http:\/\/s.dianhua.cn\/pkg\/71.zip?v=103","ver":"103","size":"1815518"},{"id":"67","name":"\u6c5f\u95e8","pid":"19","areacode":"750","hot":0,"pys":"JM","pyf":"Jiangmen","pkg":"http:\/\/s.dianhua.cn\/pkg\/67.zip?v=103","ver":"103","size":"1620232"},{"id":"199","name":"\u63ed\u9633","pid":"19","areacode":"663","hot":0,"pys":"JY","pyf":"Jieyang","pkg":"http:\/\/s.dianhua.cn\/pkg\/199.zip?v=104","ver":"104","size":"1317054"},{"id":"96","name":"\u8302\u540d","pid":"19","areacode":"668","hot":0,"pys":"MM","pyf":"Maoming","pkg":"http:\/\/s.dianhua.cn\/pkg\/96.zip?v=103","ver":"103","size":"1298201"},{"id":"129","name":"\u6885\u5dde","pid":"19","areacode":"753","hot":0,"pys":"MZ","pyf":"Meizhou","pkg":"http:\/\/s.dianhua.cn\/pkg\/129.zip?v=104","ver":"104","size":"1321258"},{"id":"114","name":"\u6e05\u8fdc","pid":"19","areacode":"763","hot":0,"pys":"QY","pyf":"Qingyuan","pkg":"http:\/\/s.dianhua.cn\/pkg\/114.zip?v=103","ver":"103","size":"1306470"},{"id":"55","name":"\u6c55\u5934","pid":"19","areacode":"754","hot":0,"pys":"ST","pyf":"Shantou","pkg":"http:\/\/s.dianhua.cn\/pkg\/55.zip?v=104","ver":"104","size":"1545619"},{"id":"239","name":"\u6c55\u5c3e","pid":"19","areacode":"660","hot":0,"pys":"SW","pyf":"Shanwei","pkg":"http:\/\/s.dianhua.cn\/pkg\/239.zip?v=103","ver":"103","size":"1059787"},{"id":"102","name":"\u97f6\u5173","pid":"19","areacode":"751","hot":0,"pys":"SG","pyf":"Shaoguan","pkg":"http:\/\/s.dianhua.cn\/pkg\/102.zip?v=103","ver":"103","size":"1366370"},{"id":"11","name":"\u6df1\u5733","pid":"19","areacode":"755","hot":1,"pys":"SZ","pyf":"Shenzhen","pkg":"http:\/\/s.dianhua.cn\/pkg\/11.zip?v=102","ver":"102","size":"4072564"},{"id":"80","name":"\u9633\u6c5f","pid":"19","areacode":"662","hot":0,"pys":"YJ","pyf":"Yangjiang","pkg":"http:\/\/s.dianhua.cn\/pkg\/80.zip?v=104","ver":"104","size":"1210861"},{"id":"248","name":"\u4e91\u6d6e","pid":"19","areacode":"766","hot":0,"pys":"YF","pyf":"Yunfu","pkg":"http:\/\/s.dianhua.cn\/pkg\/248.zip?v=103","ver":"103","size":"989899"},{"id":"111","name":"\u6e5b\u6c5f","pid":"19","areacode":"759","hot":0,"pys":"ZJ","pyf":"Zhanjiang","pkg":"http:\/\/s.dianhua.cn\/pkg\/111.zip?v=103","ver":"103","size":"1392906"},{"id":"91","name":"\u8087\u5e86","pid":"19","areacode":"758","hot":0,"pys":"ZQ","pyf":"Zhaoqing","pkg":"http:\/\/s.dianhua.cn\/pkg\/91.zip?v=103","ver":"103","size":"1348353"},{"id":"61","name":"\u4e2d\u5c71","pid":"19","areacode":"760","hot":0,"pys":"ZS","pyf":"Zhongshan","pkg":"http:\/\/s.dianhua.cn\/pkg\/61.zip?v=104","ver":"104","size":"1883504"},{"id":"36","name":"\u73e0\u6d77","pid":"19","areacode":"756","hot":0,"pys":"ZH","pyf":"Zhuhai","pkg":"http:\/\/s.dianhua.cn\/pkg\/36.zip?v=103","ver":"103","size":"1938069"},{"id":"320","name":"\u767d\u94f6","pid":"28","areacode":"943","hot":0,"pys":"BY","pyf":"Baiyin","pkg":"http:\/\/s.dianhua.cn\/pkg\/320.zip?v=103","ver":"103","size":"910199"},{"id":"345","name":"\u5b9a\u897f","pid":"28","areacode":"932","hot":0,"pys":"DX","pyf":"Dingxi","pkg":"http:\/\/s.dianhua.cn\/pkg\/345.zip?v=103","ver":"103","size":"855258"},{"id":"316","name":"\u7518\u5357","pid":"28","areacode":"941","hot":0,"pys":"GNCZ","pyf":"Gannan","pkg":"http:\/\/s.dianhua.cn\/pkg\/316.zip?v=103","ver":"103","size":"737131"},{"id":"292","name":"\u5609\u5cea\u5173","pid":"28","areacode":"937","hot":0,"pys":"JYG","pyf":"Jiayuguan","pkg":"http:\/\/s.dianhua.cn\/pkg\/292.zip?v=103","ver":"103","size":"704122"},{"id":"346","name":"\u91d1\u660c","pid":"28","areacode":"935","hot":0,"pys":"JC","pyf":"Jinchang","pkg":"http:\/\/s.dianhua.cn\/pkg\/346.zip?v=103","ver":"103","size":"783315"},{"id":"218","name":"\u9152\u6cc9","pid":"28","areacode":"937","hot":0,"pys":"JQ","pyf":"Jiuquan","pkg":"http:\/\/s.dianhua.cn\/pkg\/218.zip?v=103","ver":"103","size":"945055"},{"id":"39","name":"\u5170\u5dde","pid":"28","areacode":"931","hot":0,"pys":"LZ","pyf":"Lanzhou","pkg":"http:\/\/s.dianhua.cn\/pkg\/39.zip?v=103","ver":"103","size":"2057711"},{"id":"327","name":"\u4e34\u590f","pid":"28","areacode":"930","hot":0,"pys":"LXZ","pyf":"Linxiazhou","pkg":"http:\/\/s.dianhua.cn\/pkg\/327.zip?v=103","ver":"103","size":"746329"},{"id":"334","name":"\u9647\u5357","pid":"28","areacode":"939","hot":0,"pys":"LN","pyf":"Longnan","pkg":"http:\/\/s.dianhua.cn\/pkg\/334.zip?v=103","ver":"103","size":"886742"},{"id":"314","name":"\u5e73\u51c9","pid":"28","areacode":"933","hot":0,"pys":"PL","pyf":"Pingliang","pkg":"http:\/\/s.dianhua.cn\/pkg\/314.zip?v=103","ver":"103","size":"929275"},{"id":"293","name":"\u5e86\u9633","pid":"28","areacode":"934","hot":0,"pys":"QY","pyf":"Qingyang","pkg":"http:\/\/s.dianhua.cn\/pkg\/293.zip?v=103","ver":"103","size":"962539"},{"id":"272","name":"\u5929\u6c34","pid":"28","areacode":"938","hot":0,"pys":"TS","pyf":"Tianshui","pkg":"http:\/\/s.dianhua.cn\/pkg\/272.zip?v=103","ver":"103","size":"1009903"},{"id":"304","name":"\u6b66\u5a01","pid":"28","areacode":"935","hot":0,"pys":"WW","pyf":"Wuwei","pkg":"http:\/\/s.dianhua.cn\/pkg\/304.zip?v=103","ver":"103","size":"892733"},{"id":"270","name":"\u5f20\u6396","pid":"28","areacode":"936","hot":0,"pys":"ZY","pyf":"Zhangye","pkg":"http:\/\/s.dianhua.cn\/pkg\/270.zip?v=103","ver":"103","size":"872460"},{"id":"262","name":"\u767e\u8272","pid":"20","areacode":"776","hot":0,"pys":"BS","pyf":"Baise","pkg":"http:\/\/s.dianhua.cn\/pkg\/262.zip?v=103","ver":"103","size":"1003648"},{"id":"156","name":"\u5317\u6d77","pid":"20","areacode":"779","hot":0,"pys":"BH","pyf":"Beihai","pkg":"http:\/\/s.dianhua.cn\/pkg\/156.zip?v=104","ver":"104","size":"1177332"},{"id":"318","name":"\u5d07\u5de6","pid":"20","areacode":"771","hot":0,"pys":"CZ","pyf":"Chongzuo","pkg":"http:\/\/s.dianhua.cn\/pkg\/318.zip?v=103","ver":"103","size":"835453"},{"id":"282","name":"\u9632\u57ce\u6e2f","pid":"20","areacode":"770","hot":0,"pys":"FCG","pyf":"Fangchenggang","pkg":"http:\/\/s.dianhua.cn\/pkg\/282.zip?v=103","ver":"103","size":"856911"},{"id":"244","name":"\u8d35\u6e2f","pid":"20","areacode":"775","hot":0,"pys":"GG","pyf":"Guiguang","pkg":"http:\/\/s.dianhua.cn\/pkg\/244.zip?v=103","ver":"103","size":"980800"},{"id":"52","name":"\u6842\u6797","pid":"20","areacode":"773","hot":0,"pys":"GL","pyf":"Guilin","pkg":"http:\/\/s.dianhua.cn\/pkg\/52.zip?v=103","ver":"103","size":"1632148"},{"id":"280","name":"\u6cb3\u6c60","pid":"20","areacode":"778","hot":0,"pys":"HC","pyf":"Hechi","pkg":"http:\/\/s.dianhua.cn\/pkg\/280.zip?v=103","ver":"103","size":"988795"},{"id":"213","name":"\u8d3a\u5dde","pid":"20","areacode":"774","hot":0,"pys":"HZ","pyf":"Hezhou","pkg":"http:\/\/s.dianhua.cn\/pkg\/213.zip?v=104","ver":"104","size":"904212"},{"id":"332","name":"\u6765\u5bbe","pid":"20","areacode":"772","hot":0,"pys":"LB","pyf":"Laibin","pkg":"http:\/\/s.dianhua.cn\/pkg\/332.zip?v=102","ver":"102","size":"1892345"},{"id":"121","name":"\u67f3\u5dde","pid":"20","areacode":"772","hot":0,"pys":"LZ","pyf":"Liuzhou","pkg":"http:\/\/s.dianhua.cn\/pkg\/121.zip?v=103","ver":"103","size":"1540252"},{"id":"37","name":"\u5357\u5b81","pid":"20","areacode":"771","hot":0,"pys":"NN","pyf":"Nanning","pkg":"http:\/\/s.dianhua.cn\/pkg\/37.zip?v=104","ver":"104","size":"2321754"},{"id":"268","name":"\u94a6\u5dde","pid":"20","areacode":"777","hot":0,"pys":"QZ","pyf":"Qinzhou","pkg":"http:\/\/s.dianhua.cn\/pkg\/268.zip?v=103","ver":"103","size":"915235"},{"id":"178","name":"\u68a7\u5dde","pid":"20","areacode":"774","hot":0,"pys":"WZ","pyf":"Wuzhou","pkg":"http:\/\/s.dianhua.cn\/pkg\/178.zip?v=103","ver":"103","size":"963535"},{"id":"245","name":"\u7389\u6797","pid":"20","areacode":"775","hot":0,"pys":"YL","pyf":"Yulin","pkg":"http:\/\/s.dianhua.cn\/pkg\/245.zip?v=103","ver":"103","size":"1176375"},{"id":"256","name":"\u5b89\u987a","pid":"24","areacode":"853","hot":0,"pys":"AS","pyf":"Anshun","pkg":"http:\/\/s.dianhua.cn\/pkg\/256.zip?v=103","ver":"103","size":"929901"},{"id":"343","name":"\u6bd5\u8282","pid":"24","areacode":"857","hot":0,"pys":"BJ","pyf":"Bijie","pkg":"http:\/\/s.dianhua.cn\/pkg\/343.zip?v=103","ver":"103","size":"891923"},{"id":"34","name":"\u8d35\u9633","pid":"24","areacode":"851","hot":0,"pys":"GY","pyf":"Guiyang","pkg":"http:\/\/s.dianhua.cn\/pkg\/34.zip?v=103","ver":"103","size":"1994739"},{"id":"286","name":"\u516d\u76d8\u6c34","pid":"24","areacode":"858","hot":0,"pys":"LPS","pyf":"Liupanshui","pkg":"http:\/\/s.dianhua.cn\/pkg\/286.zip?v=103","ver":"103","size":"985214"},{"id":"228","name":"\u9ed4\u4e1c\u5357","pid":"24","areacode":"855","hot":0,"pys":"QDN","pyf":"Qiandongnan","pkg":"http:\/\/s.dianhua.cn\/pkg\/228.zip?v=103","ver":"103","size":"1058607"},{"id":"303","name":"\u9ed4\u5357","pid":"24","areacode":"854","hot":0,"pys":"QNBY","pyf":"Qiannan","pkg":"http:\/\/s.dianhua.cn\/pkg\/303.zip?v=103","ver":"103","size":"896493"},{"id":"301","name":"\u9ed4\u897f\u5357","pid":"24","areacode":"859","hot":0,"pys":"QXNB","pyf":"Qianxinan","pkg":"http:\/\/s.dianhua.cn\/pkg\/301.zip?v=102","ver":"102","size":"1961620"},{"id":"308","name":"\u94dc\u4ec1","pid":"24","areacode":"856","hot":0,"pys":"TRDQ","pyf":"Tongren","pkg":"http:\/\/s.dianhua.cn\/pkg\/308.zip?v=102","ver":"102","size":"2071015"},{"id":"187","name":"\u9075\u4e49","pid":"24","areacode":"852","hot":0,"pys":"ZY","pyf":"Zunyi","pkg":"http:\/\/s.dianhua.cn\/pkg\/187.zip?v=104","ver":"104","size":"1338235"},{"id":"58","name":"\u4fdd\u5b9a","pid":"3","areacode":"312","hot":0,"pys":"BD","pyf":"Baoding","pkg":"http:\/\/s.dianhua.cn\/pkg\/58.zip?v=104","ver":"104","size":"1713047"},{"id":"104","name":"\u6ca7\u5dde","pid":"3","areacode":"317","hot":0,"pys":"CZ","pyf":"Cangzhou","pkg":"http:\/\/s.dianhua.cn\/pkg\/104.zip?v=103","ver":"103","size":"1420033"},{"id":"128","name":"\u627f\u5fb7","pid":"3","areacode":"314","hot":0,"pys":"CD","pyf":"Chengde","pkg":"http:\/\/s.dianhua.cn\/pkg\/128.zip?v=104","ver":"104","size":"1243851"},{"id":"233","name":"\u6069\u65bd","pid":"17","areacode":"718","hot":0,"pys":"EZ","pyf":"Enshizhou","pkg":"http:\/\/s.dianhua.cn\/pkg\/233.zip?v=103","ver":"103","size":"934560"},{"id":"310","name":"\u9102\u5dde","pid":"17","areacode":"711","hot":0,"pys":"EZ","pyf":"Ezhou","pkg":"http:\/\/s.dianhua.cn\/pkg\/310.zip?v=103","ver":"103","size":"789574"},{"id":"72","name":"\u90af\u90f8","pid":"3","areacode":"310","hot":0,"pys":"HD","pyf":"Handan","pkg":"http:\/\/s.dianhua.cn\/pkg\/72.zip?v=104","ver":"104","size":"1535058"},{"id":"207","name":"\u8861\u6c34","pid":"3","areacode":"318","hot":0,"pys":"HS","pyf":"Hengshui","pkg":"http:\/\/s.dianhua.cn\/pkg\/207.zip?v=103","ver":"103","size":"1130976"},{"id":"153","name":"\u9ec4\u5188","pid":"17","areacode":"713","hot":0,"pys":"HG","pyf":"Huanggang","pkg":"http:\/\/s.dianhua.cn\/pkg\/153.zip?v=104","ver":"104","size":"1143135"},{"id":"173","name":"\u9ec4\u77f3","pid":"17","areacode":"714","hot":0,"pys":"HS","pyf":"Huangshi","pkg":"http:\/\/s.dianhua.cn\/pkg\/173.zip?v=103","ver":"103","size":"1004778"},{"id":"124","name":"\u8346\u5dde","pid":"17","areacode":"716","hot":0,"pys":"JZ","pyf":"Jingzhou","pkg":"http:\/\/s.dianhua.cn\/pkg\/124.zip?v=103","ver":"103","size":"1269365"},{"id":"220","name":"\u8346\u95e8","pid":"17","areacode":"724","hot":0,"pys":"JM","pyf":"Jinmen","pkg":"http:\/\/s.dianhua.cn\/pkg\/220.zip?v=103","ver":"103","size":"998427"},{"id":"66","name":"\u5eca\u574a","pid":"3","areacode":"316","hot":0,"pys":"LF","pyf":"Langfang","pkg":"http:\/\/s.dianhua.cn\/pkg\/66.zip?v=104","ver":"104","size":"1597937"},{"id":"302","name":"\u6f5c\u6c5f","pid":"17","areacode":"728","hot":0,"pys":"QJ","pyf":"Qianjiang","pkg":"http:\/\/s.dianhua.cn\/pkg\/302.zip?v=103","ver":"103","size":"744329"},{"id":"57","name":"\u79e6\u7687\u5c9b","pid":"3","areacode":"335","hot":0,"pys":"QHD","pyf":"Qinhuangdao","pkg":"http:\/\/s.dianhua.cn\/pkg\/57.zip?v=103","ver":"103","size":"1517801"},{"id":"353","name":"\u795e\u519c\u67b6\u6797\u533a","pid":"17","areacode":"719","hot":0,"pys":"SNJ","pyf":"Shennongjia","pkg":"http:\/\/s.dianhua.cn\/pkg\/353.zip?v=102","ver":"102","size":"1293658"},{"id":"26","name":"\u77f3\u5bb6\u5e84","pid":"3","areacode":"311","hot":0,"pys":"SJZ","pyf":"Shijiazhuang","pkg":"http:\/\/s.dianhua.cn\/pkg\/26.zip?v=103","ver":"103","size":"2634622"},{"id":"170","name":"\u5341\u5830","pid":"17","areacode":"719","hot":0,"pys":"SY","pyf":"Shiyan","pkg":"http:\/\/s.dianhua.cn\/pkg\/170.zip?v=103","ver":"103","size":"1083866"},{"id":"260","name":"\u968f\u5dde","pid":"17","areacode":"722","hot":0,"pys":"SZ","pyf":"Suizhou","pkg":"http:\/\/s.dianhua.cn\/pkg\/260.zip?v=103","ver":"103","size":"894276"},{"id":"74","name":"\u5510\u5c71","pid":"3","areacode":"315","hot":0,"pys":"TS","pyf":"Tangshan","pkg":"http:\/\/s.dianhua.cn\/pkg\/74.zip?v=103","ver":"103","size":"1659274"},{"id":"337","name":"\u5929\u95e8","pid":"17","areacode":"728","hot":0,"pys":"TM","pyf":"Tianmen","pkg":"http:\/\/s.dianhua.cn\/pkg\/337.zip?v=103","ver":"103","size":"698298"},{"id":"4","name":"\u6b66\u6c49","pid":"17","areacode":"27","hot":1,"pys":"WH","pyf":"Wuhan","pkg":"http:\/\/s.dianhua.cn\/pkg\/4.zip?v=106","ver":"106","size":"3482033"},{"id":"150","name":"\u8944\u9633","pid":"17","areacode":"710","hot":0,"pys":"XF","pyf":"Xiangyang","pkg":"http:\/\/s.dianhua.cn\/pkg\/150.zip?v=104","ver":"104","size":"1189762"},{"id":"250","name":"\u54b8\u5b81","pid":"17","areacode":"715","hot":0,"pys":"XN","pyf":"Xianning","pkg":"http:\/\/s.dianhua.cn\/pkg\/250.zip?v=103","ver":"103","size":"1024932"},{"id":"342","name":"\u4ed9\u6843","pid":"17","areacode":"728","hot":0,"pys":"XT","pyf":"Xiantao","pkg":"http:\/\/s.dianhua.cn\/pkg\/342.zip?v=103","ver":"103","size":"752991"},{"id":"236","name":"\u5b5d\u611f","pid":"17","areacode":"712","hot":0,"pys":"XG","pyf":"Xiaogan","pkg":"http:\/\/s.dianhua.cn\/pkg\/236.zip?v=103","ver":"103","size":"1029767"},{"id":"70","name":"\u90a2\u53f0","pid":"3","areacode":"319","hot":0,"pys":"XT","pyf":"Xingtai","pkg":"http:\/\/s.dianhua.cn\/pkg\/70.zip?v=104","ver":"104","size":"1318084"},{"id":"94","name":"\u5b9c\u660c","pid":"17","areacode":"717","hot":0,"pys":"YC","pyf":"Yichang","pkg":"http:\/\/s.dianhua.cn\/pkg\/94.zip?v=104","ver":"104","size":"1382809"},{"id":"137","name":"\u5f20\u5bb6\u53e3","pid":"3","areacode":"313","hot":0,"pys":"ZJK","pyf":"Zhangjiakou","pkg":"http:\/\/s.dianhua.cn\/pkg\/137.zip?v=103","ver":"103","size":"1246310"},{"id":"97","name":"\u5927\u5e86","pid":"8","areacode":"459","hot":0,"pys":"DQ","pyf":"Daqing","pkg":"http:\/\/s.dianhua.cn\/pkg\/97.zip?v=103","ver":"103","size":"1375425"},{"id":"297","name":"\u5927\u5174\u5b89\u5cad","pid":"8","areacode":"457","hot":0,"pys":"DXAL","pyf":"Daxinganlin","pkg":"http:\/\/s.dianhua.cn\/pkg\/297.zip?v=103","ver":"103","size":"714784"},{"id":"23","name":"\u54c8\u5c14\u6ee8","pid":"8","areacode":"451","hot":0,"pys":"HEB","pyf":"Harbin","pkg":"http:\/\/s.dianhua.cn\/pkg\/23.zip?v=104","ver":"104","size":"3159588"},{"id":"324","name":"\u9e64\u5c97","pid":"8","areacode":"468","hot":0,"pys":"HG","pyf":"Hegang","pkg":"http:\/\/s.dianhua.cn\/pkg\/324.zip?v=103","ver":"103","size":"834698"},{"id":"230","name":"\u9ed1\u6cb3","pid":"8","areacode":"456","hot":0,"pys":"HH","pyf":"Heihe","pkg":"http:\/\/s.dianhua.cn\/pkg\/230.zip?v=103","ver":"103","size":"1035823"},{"id":"200","name":"\u4f73\u6728\u65af","pid":"8","areacode":"454","hot":0,"pys":"JMS","pyf":"Jiamusi","pkg":"http:\/\/s.dianhua.cn\/pkg\/200.zip?v=103","ver":"103","size":"1074430"},{"id":"216","name":"\u9e21\u897f","pid":"8","areacode":"467","hot":0,"pys":"JX","pyf":"Jixi","pkg":"http:\/\/s.dianhua.cn\/pkg\/216.zip?v=103","ver":"103","size":"910018"},{"id":"139","name":"\u7261\u4e39\u6c5f","pid":"8","areacode":"453","hot":0,"pys":"MDJ","pyf":"Mudanjiang","pkg":"http:\/\/s.dianhua.cn\/pkg\/139.zip?v=104","ver":"104","size":"1174289"},{"id":"148","name":"\u9f50\u9f50\u54c8\u5c14","pid":"8","areacode":"452","hot":0,"pys":"QQHE","pyf":"Qiqihaer","pkg":"http:\/\/s.dianhua.cn\/pkg\/148.zip?v=102","ver":"102","size":"1279822"},{"id":"326","name":"\u4e03\u53f0\u6cb3","pid":"8","areacode":"464","hot":0,"pys":"QTH","pyf":"Qitaihe","pkg":"http:\/\/s.dianhua.cn\/pkg\/326.zip?v=103","ver":"103","size":"772668"},{"id":"330","name":"\u53cc\u9e2d\u5c71","pid":"8","areacode":"469","hot":0,"pys":"SYS","pyf":"Shuangyashan","pkg":"http:\/\/s.dianhua.cn\/pkg\/330.zip?v=103","ver":"103","size":"822157"},{"id":"311","name":"\u7ee5\u5316","pid":"8","areacode":"455","hot":0,"pys":"SH","pyf":"Suihua","pkg":"http:\/\/s.dianhua.cn\/pkg\/311.zip?v=103","ver":"103","size":"1069189"},{"id":"306","name":"\u4f0a\u6625","pid":"8","areacode":"458","hot":0,"pys":"YC","pyf":"Yichun","pkg":"http:\/\/s.dianhua.cn\/pkg\/306.zip?v=103","ver":"103","size":"863089"},{"id":"147","name":"\u5b89\u9633","pid":"16","areacode":"372","hot":0,"pys":"AY","pyf":"Anyang","pkg":"http:\/\/s.dianhua.cn\/pkg\/147.zip?v=104","ver":"104","size":"1271597"},{"id":"367","name":"\u767d\u6c99","pid":"21","areacode":"898","hot":0,"pys":"BS","pyf":"Baisha","pkg":"http:\/\/s.dianhua.cn\/pkg\/367.zip?v=102","ver":"102","size":"1351226"},{"id":"335","name":"\u4fdd\u4ead","pid":"21","areacode":"898","hot":0,"pys":"BT","pyf":"Baoting","pkg":"http:\/\/s.dianhua.cn\/pkg\/335.zip?v=103","ver":"103","size":"660758"},{"id":"190","name":"\u5e38\u5fb7","pid":"18","areacode":"736","hot":0,"pys":"CD","pyf":"Changde","pkg":"http:\/\/s.dianhua.cn\/pkg\/190.zip?v=104","ver":"104","size":"1381911"},{"id":"355","name":"\u660c\u6c5f","pid":"21","areacode":"898","hot":0,"pys":"CD","pyf":"Changjiang","pkg":"http:\/\/s.dianhua.cn\/pkg\/355.zip?v=103","ver":"103","size":"663341"},{"id":"29","name":"\u957f\u6c99","pid":"18","areacode":"731","hot":0,"pys":"CS","pyf":"Changsha","pkg":"http:\/\/s.dianhua.cn\/pkg\/29.zip?v=104","ver":"104","size":"2875374"},{"id":"340","name":"\u6f84\u8fc8\u53bf","pid":"21","areacode":"898","hot":0,"pys":"CMX","pyf":"Chengmaixian","pkg":"http:\/\/s.dianhua.cn\/pkg\/340.zip?v=103","ver":"103","size":"672498"},{"id":"214","name":"\u90f4\u5dde","pid":"18","areacode":"735","hot":0,"pys":"CZ","pyf":"Chenzhou","pkg":"http:\/\/s.dianhua.cn\/pkg\/214.zip?v=104","ver":"104","size":"1189191"},{"id":"281","name":"\u510b\u5dde","pid":"21","areacode":"898","hot":0,"pys":"DZ","pyf":"Danzhou","pkg":"http:\/\/s.dianhua.cn\/pkg\/281.zip?v=103","ver":"103","size":"728254"},{"id":"349","name":"\u5b9a\u5b89\u53bf","pid":"21","areacode":"898","hot":0,"pys":"DAX","pyf":"Dinganxian","pkg":"http:\/\/s.dianhua.cn\/pkg\/349.zip?v=103","ver":"103","size":"634904"},{"id":"328","name":"\u4e1c\u65b9","pid":"21","areacode":"898","hot":0,"pys":"DF","pyf":"Dongfang","pkg":"http:\/\/s.dianhua.cn\/pkg\/328.zip?v=103","ver":"103","size":"696762"},{"id":"42","name":"\u6d77\u53e3","pid":"21","areacode":"898","hot":0,"pys":"HK","pyf":"Haikou","pkg":"http:\/\/s.dianhua.cn\/pkg\/42.zip?v=104","ver":"104","size":"2020252"},{"id":"291","name":"\u9e64\u58c1","pid":"16","areacode":"392","hot":0,"pys":"HB","pyf":"Hebi","pkg":"http:\/\/s.dianhua.cn\/pkg\/291.zip?v=103","ver":"103","size":"923439"},{"id":"142","name":"\u8861\u9633","pid":"18","areacode":"734","hot":0,"pys":"HY","pyf":"Hengyang","pkg":"http:\/\/s.dianhua.cn\/pkg\/142.zip?v=104","ver":"104","size":"1425485"},{"id":"247","name":"\u6000\u5316","pid":"18","areacode":"745","hot":0,"pys":"HH","pyf":"Huaihua","pkg":"http:\/\/s.dianhua.cn\/pkg\/247.zip?v=103","ver":"103","size":"1175096"},{"id":"149","name":"\u7126\u4f5c","pid":"16","areacode":"391","hot":0,"pys":"JZ","pyf":"Jiaozuo","pkg":"http:\/\/s.dianhua.cn\/pkg\/149.zip?v=103","ver":"103","size":"1209909"},{"id":"325","name":"\u6d4e\u6e90","pid":"16","areacode":"391","hot":0,"pys":"JY","pyf":"Jiyuan","pkg":"http:\/\/s.dianhua.cn\/pkg\/325.zip?v=103","ver":"103","size":"748992"},{"id":"118","name":"\u5f00\u5c01","pid":"16","areacode":"371","hot":0,"pys":"KF","pyf":"Kaifen","pkg":"http:\/\/s.dianhua.cn\/pkg\/118.zip?v=104","ver":"104","size":"1033044"},{"id":"357","name":"\u4e50\u4e1c","pid":"21","areacode":"898","hot":0,"pys":"LD","pyf":"Ledong","pkg":"http:\/\/s.dianhua.cn\/pkg\/357.zip?v=103","ver":"103","size":"657630"},{"id":"362","name":"\u4e34\u9ad8\u53bf","pid":"21","areacode":"898","hot":0,"pys":"LGX","pyf":"Lingaoxian","pkg":"http:\/\/s.dianhua.cn\/pkg\/362.zip?v=102","ver":"102","size":"1326967"},{"id":"333","name":"\u9675\u6c34","pid":"21","areacode":"898","hot":0,"pys":"LS","pyf":"Lingshui","pkg":"http:\/\/s.dianhua.cn\/pkg\/333.zip?v=103","ver":"103","size":"670228"},{"id":"279","name":"\u5a04\u5e95","pid":"18","areacode":"738","hot":0,"pys":"LD","pyf":"Loudi","pkg":"http:\/\/s.dianhua.cn\/pkg\/279.zip?v=103","ver":"103","size":"1037790"},{"id":"264","name":"\u6f2f\u6cb3","pid":"16","areacode":"395","hot":0,"pys":"LH","pyf":"Luohe","pkg":"http:\/\/s.dianhua.cn\/pkg\/264.zip?v=103","ver":"103","size":"994192"},{"id":"59","name":"\u6d1b\u9633","pid":"16","areacode":"379","hot":0,"pys":"LY","pyf":"Luoyang","pkg":"http:\/\/s.dianhua.cn\/pkg\/59.zip?v=104","ver":"104","size":"1667371"},{"id":"115","name":"\u5357\u9633","pid":"16","areacode":"377","hot":0,"pys":"NY","pyf":"Nanyang","pkg":"http:\/\/s.dianhua.cn\/pkg\/115.zip?v=104","ver":"104","size":"809864"},{"id":"179","name":"\u5e73\u9876\u5c71","pid":"16","areacode":"375","hot":0,"pys":"PDS","pyf":"Pingdingshan","pkg":"http:\/\/s.dianhua.cn\/pkg\/179.zip?v=103","ver":"103","size":"1184542"},{"id":"219","name":"\u6fee\u9633","pid":"16","areacode":"393","hot":0,"pys":"PY","pyf":"Puyang","pkg":"http:\/\/s.dianhua.cn\/pkg\/219.zip?v=103","ver":"103","size":"1068044"},{"id":"261","name":"\u743c\u6d77","pid":"21","areacode":"898","hot":0,"pys":"QH","pyf":"Qionghai","pkg":"http:\/\/s.dianhua.cn\/pkg\/261.zip?v=103","ver":"103","size":"750876"},{"id":"361","name":"\u743c\u4e2d","pid":"21","areacode":"898","hot":0,"pys":"QZ","pyf":"Qiongzhong","pkg":"http:\/\/s.dianhua.cn\/pkg\/361.zip?v=5","ver":"5","size":"651720"},{"id":"237","name":"\u4e09\u95e8\u5ce1","pid":"16","areacode":"398","hot":0,"pys":"SMX","pyf":"Sanmenxia","pkg":"http:\/\/s.dianhua.cn\/pkg\/237.zip?v=102","ver":"102","size":"2123700"},{"id":"370","name":"\u4e09\u6c99","pid":"21","areacode":"898","hot":0,"pys":"SS","pyf":"Sansha","pkg":"?v=100","ver":"100","size":"0"},{"id":"51","name":"\u4e09\u4e9a","pid":"21","areacode":"898","hot":0,"pys":"SY","pyf":"Sanya","pkg":"http:\/\/s.dianhua.cn\/pkg\/51.zip?v=102","ver":"102","size":"1377957"},{"id":"204","name":"\u5546\u4e18","pid":"16","areacode":"370","hot":0,"pys":"SQ","pyf":"Shangqiu","pkg":"http:\/\/s.dianhua.cn\/pkg\/204.zip?v=104","ver":"104","size":"1247949"},{"id":"215","name":"\u90b5\u9633","pid":"18","areacode":"739","hot":0,"pys":"SY","pyf":"Shaoyang","pkg":"http:\/\/s.dianhua.cn\/pkg\/215.zip?v=103","ver":"103","size":"1158674"},{"id":"363","name":"\u5c6f\u660c\u53bf","pid":"21","areacode":"898","hot":0,"pys":"TCX","pyf":"Tunchangxian","pkg":"http:\/\/s.dianhua.cn\/pkg\/363.zip?v=103","ver":"103","size":"652696"},{"id":"288","name":"\u4e07\u5b81","pid":"21","areacode":"898","hot":0,"pys":"WN","pyf":"Wanning","pkg":"http:\/\/s.dianhua.cn\/pkg\/288.zip?v=103","ver":"103","size":"698963"},{"id":"300","name":"\u6587\u660c","pid":"21","areacode":"898","hot":0,"pys":"WC","pyf":"Wenchang","pkg":"http:\/\/s.dianhua.cn\/pkg\/300.zip?v=103","ver":"103","size":"728662"},{"id":"344","name":"\u4e94\u6307\u5c71","pid":"21","areacode":"898","hot":0,"pys":"WZS","pyf":"Wuzhishan","pkg":"http:\/\/s.dianhua.cn\/pkg\/344.zip?v=103","ver":"103","size":"657402"},{"id":"174","name":"\u6e58\u6f6d","pid":"18","areacode":"731","hot":0,"pys":"XT","pyf":"Xiangtan","pkg":"http:\/\/s.dianhua.cn\/pkg\/174.zip?v=103","ver":"103","size":"1160837"},{"id":"127","name":"\u6e58\u897f","pid":"18","areacode":"743","hot":0,"pys":"XXTJ","pyf":"Xiangxi","pkg":"http:\/\/s.dianhua.cn\/pkg\/127.zip?v=104","ver":"104","size":"895593"},{"id":"79","name":"\u65b0\u4e61","pid":"16","areacode":"373","hot":0,"pys":"XX","pyf":"Xinxiang","pkg":"http:\/\/s.dianhua.cn\/pkg\/79.zip?v=104","ver":"104","size":"1386298"},{"id":"161","name":"\u4fe1\u9633","pid":"16","areacode":"376","hot":0,"pys":"XY","pyf":"Xinyang","pkg":"http:\/\/s.dianhua.cn\/pkg\/161.zip?v=104","ver":"104","size":"1159222"},{"id":"116","name":"\u8bb8\u660c","pid":"16","areacode":"374","hot":0,"pys":"XC","pyf":"Xuchang","pkg":"http:\/\/s.dianhua.cn\/pkg\/116.zip?v=103","ver":"103","size":"1182567"},{"id":"224","name":"\u76ca\u9633","pid":"18","areacode":"737","hot":0,"pys":"YY","pyf":"Yiyang","pkg":"http:\/\/s.dianhua.cn\/pkg\/224.zip?v=103","ver":"103","size":"1044828"},{"id":"276","name":"\u6c38\u5dde","pid":"18","areacode":"746","hot":0,"pys":"YZ","pyf":"Yongzhou","pkg":"http:\/\/s.dianhua.cn\/pkg\/276.zip?v=103","ver":"103","size":"1053339"},{"id":"183","name":"\u5cb3\u9633","pid":"18","areacode":"730","hot":0,"pys":"YY","pyf":"Yueyang","pkg":"http:\/\/s.dianhua.cn\/pkg\/183.zip?v=103","ver":"103","size":"1410560"},{"id":"108","name":"\u5f20\u5bb6\u754c","pid":"18","areacode":"744","hot":0,"pys":"ZJJ","pyf":"Zhangjiajie","pkg":"http:\/\/s.dianhua.cn\/pkg\/108.zip?v=104","ver":"104","size":"959148"},{"id":"21","name":"\u90d1\u5dde","pid":"16","areacode":"371","hot":0,"pys":"ZZ","pyf":"Zhengzhou","pkg":"http:\/\/s.dianhua.cn\/pkg\/21.zip?v=104","ver":"104","size":"2944197"},{"id":"226","name":"\u5468\u53e3","pid":"16","areacode":"394","hot":0,"pys":"ZK","pyf":"Zhoukou","pkg":"http:\/\/s.dianhua.cn\/pkg\/226.zip?v=103","ver":"103","size":"1175577"},{"id":"235","name":"\u9a7b\u9a6c\u5e97","pid":"16","areacode":"396","hot":0,"pys":"ZMD","pyf":"Zhumadian","pkg":"http:\/\/s.dianhua.cn\/pkg\/235.zip?v=102","ver":"102","size":"2399976"},{"id":"143","name":"\u682a\u6d32","pid":"18","areacode":"731","hot":0,"pys":"ZZ","pyf":"Zhuzhou","pkg":"http:\/\/s.dianhua.cn\/pkg\/143.zip?v=103","ver":"103","size":"1235168"},{"id":"176","name":"\u767d\u57ce","pid":"7","areacode":"436","hot":0,"pys":"BC","pyf":"Baicheng","pkg":"http:\/\/s.dianhua.cn\/pkg\/176.zip?v=104","ver":"104","size":"991236"},{"id":"274","name":"\u767d\u5c71","pid":"7","areacode":"439","hot":0,"pys":"BS","pyf":"Baishan","pkg":"http:\/\/s.dianhua.cn\/pkg\/274.zip?v=103","ver":"103","size":"993798"},{"id":"13","name":"\u957f\u6625","pid":"7","areacode":"431","hot":0,"pys":"CC","pyf":"Changchun","pkg":"http:\/\/s.dianhua.cn\/pkg\/13.zip?v=103","ver":"103","size":"2836940"},{"id":"90","name":"\u5409\u6797","pid":"7","areacode":"432","hot":0,"pys":"JL","pyf":"Jilin","pkg":"http:\/\/s.dianhua.cn\/pkg\/90.zip?v=104","ver":"104","size":"1319365"},{"id":"287","name":"\u8fbd\u6e90","pid":"7","areacode":"437","hot":0,"pys":"LY","pyf":"Liaoyuan","pkg":"http:\/\/s.dianhua.cn\/pkg\/287.zip?v=103","ver":"103","size":"850715"},{"id":"241","name":"\u56db\u5e73","pid":"7","areacode":"434","hot":0,"pys":"SP","pyf":"Siping","pkg":"http:\/\/s.dianhua.cn\/pkg\/241.zip?v=103","ver":"103","size":"1039759"},{"id":"238","name":"\u677e\u539f","pid":"7","areacode":"438","hot":0,"pys":"SY","pyf":"Songyuan","pkg":"http:\/\/s.dianhua.cn\/pkg\/238.zip?v=102","ver":"102","size":"2219267"},{"id":"227","name":"\u901a\u5316","pid":"7","areacode":"435","hot":0,"pys":"TH","pyf":"Tonghua","pkg":"http:\/\/s.dianhua.cn\/pkg\/227.zip?v=103","ver":"103","size":"1130691"},{"id":"196","name":"\u5ef6\u8fb9","pid":"7","areacode":"433","hot":0,"pys":"YBCX","pyf":"Yanbian","pkg":"http:\/\/s.dianhua.cn\/pkg\/196.zip?v=104","ver":"104","size":"1006380"},{"id":"35","name":"\u5e38\u5dde","pid":"10","areacode":"519","hot":0,"pys":"CZ","pyf":"Changzhou","pkg":"http:\/\/s.dianhua.cn\/pkg\/35.zip?v=103","ver":"103","size":"2114974"},{"id":"93","name":"\u6dee\u5b89","pid":"10","areacode":"517","hot":0,"pys":"HA","pyf":"Huaian","pkg":"http:\/\/s.dianhua.cn\/pkg\/93.zip?v=103","ver":"103","size":"1564094"},{"id":"75","name":"\u8fde\u4e91\u6e2f","pid":"10","areacode":"518","hot":0,"pys":"LYG","pyf":"Lianyungang","pkg":"http:\/\/s.dianhua.cn\/pkg\/75.zip?v=103","ver":"103","size":"1571811"},{"id":"7","name":"\u5357\u4eac","pid":"10","areacode":"25","hot":1,"pys":"NJ","pyf":"Nanjing","pkg":"http:\/\/s.dianhua.cn\/pkg\/7.zip?v=104","ver":"104","size":"3884150"},{"id":"41","name":"\u5357\u901a","pid":"10","areacode":"513","hot":0,"pys":"NT","pyf":"Nantong","pkg":"http:\/\/s.dianhua.cn\/pkg\/41.zip?v=104","ver":"104","size":"1916279"},{"id":"223","name":"\u5bbf\u8fc1","pid":"10","areacode":"527","hot":0,"pys":"SQ","pyf":"Suqian","pkg":"http:\/\/s.dianhua.cn\/pkg\/223.zip?v=103","ver":"103","size":"1277742"},{"id":"14","name":"\u82cf\u5dde","pid":"10","areacode":"512","hot":1,"pys":"SZ","pyf":"Suzhou","pkg":"http:\/\/s.dianhua.cn\/pkg\/14.zip?v=104","ver":"104","size":"3321429"},{"id":"92","name":"\u6cf0\u5dde","pid":"10","areacode":"523","hot":0,"pys":"TZ","pyf":"Taizhoujiangsu","pkg":"http:\/\/s.dianhua.cn\/pkg\/92.zip?v=103","ver":"103","size":"1563987"},{"id":"17","name":"\u65e0\u9521","pid":"10","areacode":"510","hot":0,"pys":"WX","pyf":"Wuxi","pkg":"http:\/\/s.dianhua.cn\/pkg\/17.zip?v=103","ver":"103","size":"2496949"},{"id":"54","name":"\u5f90\u5dde","pid":"10","areacode":"516","hot":0,"pys":"XZ","pyf":"Xuzhou","pkg":"http:\/\/s.dianhua.cn\/pkg\/54.zip?v=102","ver":"102","size":"1841434"},{"id":"95","name":"\u76d0\u57ce","pid":"10","areacode":"515","hot":0,"pys":"YC","pyf":"Yancheng","pkg":"http:\/\/s.dianhua.cn\/pkg\/95.zip?v=103","ver":"103","size":"1911395"},{"id":"38","name":"\u626c\u5dde","pid":"10","areacode":"514","hot":0,"pys":"YZ","pyf":"Yangzhou","pkg":"http:\/\/s.dianhua.cn\/pkg\/38.zip?v=103","ver":"103","size":"1804742"},{"id":"53","name":"\u9547\u6c5f","pid":"10","areacode":"511","hot":0,"pys":"ZJ","pyf":"Zhenjiang","pkg":"http:\/\/s.dianhua.cn\/pkg\/53.zip?v=103","ver":"103","size":"1615669"},{"id":"252","name":"\u629a\u5dde","pid":"14","areacode":"794","hot":0,"pys":"FZ","pyf":"Fuzhoujiangxi","pkg":"http:\/\/s.dianhua.cn\/pkg\/252.zip?v=103","ver":"103","size":"1050625"},{"id":"78","name":"\u8d63\u5dde","pid":"14","areacode":"797","hot":0,"pys":"GZ","pyf":"Ganzhou","pkg":"http:\/\/s.dianhua.cn\/pkg\/78.zip?v=102","ver":"102","size":"1529540"},{"id":"151","name":"\u5409\u5b89","pid":"14","areacode":"796","hot":0,"pys":"JA","pyf":"Jian","pkg":"http:\/\/s.dianhua.cn\/pkg\/151.zip?v=102","ver":"102","size":"1216198"},{"id":"225","name":"\u666f\u5fb7\u9547","pid":"14","areacode":"798","hot":0,"pys":"JDZ","pyf":"Jingdezhen","pkg":"http:\/\/s.dianhua.cn\/pkg\/225.zip?v=103","ver":"103","size":"936421"},{"id":"103","name":"\u4e5d\u6c5f","pid":"14","areacode":"792","hot":0,"pys":"JJ","pyf":"Jiujiang","pkg":"http:\/\/s.dianhua.cn\/pkg\/103.zip?v=102","ver":"102","size":"1526948"},{"id":"33","name":"\u5357\u660c","pid":"14","areacode":"791","hot":0,"pys":"NC","pyf":"Nanchang","pkg":"http:\/\/s.dianhua.cn\/pkg\/33.zip?v=102","ver":"102","size":"1900069"},{"id":"263","name":"\u840d\u4e61","pid":"14","areacode":"799","hot":0,"pys":"PX","pyf":"Pingxiang","pkg":"http:\/\/s.dianhua.cn\/pkg\/263.zip?v=102","ver":"102","size":"2323586"},{"id":"123","name":"\u4e0a\u9976","pid":"14","areacode":"793","hot":0,"pys":"SR","pyf":"Shangrao","pkg":"http:\/\/s.dianhua.cn\/pkg\/123.zip?v=103","ver":"103","size":"1287769"},{"id":"257","name":"\u65b0\u4f59","pid":"14","areacode":"790","hot":0,"pys":"XY","pyf":"Xinyu","pkg":"http:\/\/s.dianhua.cn\/pkg\/257.zip?v=103","ver":"103","size":"851508"},{"id":"132","name":"\u5b9c\u6625","pid":"14","areacode":"795","hot":0,"pys":"YC","pyf":"Yichunjiangxi","pkg":"http:\/\/s.dianhua.cn\/pkg\/132.zip?v=104","ver":"104","size":"1160741"},{"id":"284","name":"\u9e70\u6f6d","pid":"14","areacode":"701","hot":0,"pys":"YT","pyf":"Yingtan","pkg":"http:\/\/s.dianhua.cn\/pkg\/284.zip?v=102","ver":"102","size":"1823366"},{"id":"88","name":"\u978d\u5c71","pid":"6","areacode":"412","hot":0,"pys":"AS","pyf":"Anshan","pkg":"http:\/\/s.dianhua.cn\/pkg\/88.zip?v=103","ver":"103","size":"1683447"},{"id":"184","name":"\u672c\u6eaa","pid":"6","areacode":"414","hot":0,"pys":"BX","pyf":"Benxi","pkg":"http:\/\/s.dianhua.cn\/pkg\/184.zip?v=103","ver":"103","size":"1159525"},{"id":"258","name":"\u671d\u9633","pid":"6","areacode":"421","hot":0,"pys":"CY","pyf":"Chaoyang","pkg":"http:\/\/s.dianhua.cn\/pkg\/258.zip?v=103","ver":"103","size":"1160027"},{"id":"20","name":"\u5927\u8fde","pid":"6","areacode":"411","hot":0,"pys":"DL","pyf":"Dalian","pkg":"http:\/\/s.dianhua.cn\/pkg\/20.zip?v=104","ver":"104","size":"2910945"},{"id":"131","name":"\u4e39\u4e1c","pid":"6","areacode":"415","hot":0,"pys":"DD","pyf":"Dandong","pkg":"http:\/\/s.dianhua.cn\/pkg\/131.zip?v=103","ver":"103","size":"1299451"},{"id":"119","name":"\u629a\u987a","pid":"6","areacode":"413","hot":0,"pys":"FS","pyf":"Fushun","pkg":"http:\/\/s.dianhua.cn\/pkg\/119.zip?v=103","ver":"103","size":"841167"},{"id":"231","name":"\u961c\u65b0","pid":"6","areacode":"418","hot":0,"pys":"FX","pyf":"Fuxin","pkg":"http:\/\/s.dianhua.cn\/pkg\/231.zip?v=103","ver":"103","size":"1190831"},{"id":"120","name":"\u846b\u82a6\u5c9b","pid":"6","areacode":"429","hot":0,"pys":"HLD","pyf":"Huludao","pkg":"http:\/\/s.dianhua.cn\/pkg\/120.zip?v=104","ver":"104","size":"1257278"},{"id":"113","name":"\u9526\u5dde","pid":"6","areacode":"416","hot":0,"pys":"JZ","pyf":"Jinzhou","pkg":"http:\/\/s.dianhua.cn\/pkg\/113.zip?v=104","ver":"104","size":"1358673"},{"id":"185","name":"\u8fbd\u9633","pid":"6","areacode":"419","hot":0,"pys":"LY","pyf":"Liaoyang","pkg":"http:\/\/s.dianhua.cn\/pkg\/185.zip?v=103","ver":"103","size":"1218323"},{"id":"163","name":"\u76d8\u9526","pid":"6","areacode":"427","hot":0,"pys":"PJ","pyf":"Panjin","pkg":"http:\/\/s.dianhua.cn\/pkg\/163.zip?v=103","ver":"103","size":"1175556"},{"id":"9","name":"\u6c88\u9633","pid":"6","areacode":"24","hot":1,"pys":"SY","pyf":"Shenyang","pkg":"http:\/\/s.dianhua.cn\/pkg\/9.zip?v=104","ver":"104","size":"3459597"},{"id":"232","name":"\u94c1\u5cad","pid":"6","areacode":"24","hot":0,"pys":"TL","pyf":"Tieling","pkg":"http:\/\/s.dianhua.cn\/pkg\/232.zip?v=103","ver":"103","size":"960417"},{"id":"133","name":"\u8425\u53e3","pid":"6","areacode":"417","hot":0,"pys":"YK","pyf":"Yingkou","pkg":"http:\/\/s.dianhua.cn\/pkg\/133.zip?v=104","ver":"104","size":"1261290"},{"id":"348","name":"\u963f\u62c9\u5584","pid":"5","areacode":"483","hot":0,"pys":"ALSM","pyf":"Alashan","pkg":"http:\/\/s.dianhua.cn\/pkg\/348.zip?v=102","ver":"102","size":"1526011"},{"id":"107","name":"\u5305\u5934","pid":"5","areacode":"472","hot":0,"pys":"BT","pyf":"Baotou","pkg":"http:\/\/s.dianhua.cn\/pkg\/107.zip?v=103","ver":"103","size":"1485537"},{"id":"295","name":"\u5df4\u5f66\u6dd6\u5c14","pid":"5","areacode":"478","hot":0,"pys":"BYNE","pyf":"Bayanzhuoer","pkg":"http:\/\/s.dianhua.cn\/pkg\/295.zip?v=103","ver":"103","size":"992315"},{"id":"181","name":"\u8d64\u5cf0","pid":"5","areacode":"476","hot":0,"pys":"CF","pyf":"Chifeng","pkg":"http:\/\/s.dianhua.cn\/pkg\/181.zip?v=103","ver":"103","size":"1324095"},{"id":"194","name":"\u9102\u5c14\u591a\u65af","pid":"5","areacode":"477","hot":0,"pys":"EEDS","pyf":"Eerduosi","pkg":"http:\/\/s.dianhua.cn\/pkg\/194.zip?v=103","ver":"103","size":"975822"},{"id":"44","name":"\u547c\u548c\u6d69\u7279","pid":"5","areacode":"471","hot":0,"pys":"HHHT","pyf":"Hohhot","pkg":"http:\/\/s.dianhua.cn\/pkg\/44.zip?v=104","ver":"104","size":"1831344"},{"id":"171","name":"\u547c\u4f26\u8d1d\u5c14","pid":"5","areacode":"470","hot":0,"pys":"HLBE","pyf":"Hulunbeier","pkg":"http:\/\/s.dianhua.cn\/pkg\/171.zip?v=104","ver":"104","size":"1079465"},{"id":"275","name":"\u901a\u8fbd","pid":"5","areacode":"475","hot":0,"pys":"TL","pyf":"Tongliao","pkg":"http:\/\/s.dianhua.cn\/pkg\/275.zip?v=103","ver":"103","size":"1042429"},{"id":"299","name":"\u4e4c\u6d77","pid":"5","areacode":"473","hot":0,"pys":"WH","pyf":"Wuhai","pkg":"http:\/\/s.dianhua.cn\/pkg\/299.zip?v=103","ver":"103","size":"847604"},{"id":"298","name":"\u4e4c\u5170\u5bdf\u5e03","pid":"5","areacode":"474","hot":0,"pys":"WLCB","pyf":"Wulanchabu","pkg":"http:\/\/s.dianhua.cn\/pkg\/298.zip?v=103","ver":"103","size":"874546"},{"id":"296","name":"\u9521\u6797\u90ed\u52d2","pid":"5","areacode":"479","hot":0,"pys":"XLGL","pyf":"Xilinguole","pkg":"http:\/\/s.dianhua.cn\/pkg\/296.zip?v=103","ver":"103","size":"790253"},{"id":"309","name":"\u5174\u5b89\u76df","pid":"5","areacode":"482","hot":0,"pys":"XAM","pyf":"Xinganmeng","pkg":"http:\/\/s.dianhua.cn\/pkg\/309.zip?v=102","ver":"102","size":"1722888"},{"id":"350","name":"\u56fa\u539f","pid":"30","areacode":"954","hot":0,"pys":"GY","pyf":"Guyuan","pkg":"http:\/\/s.dianhua.cn\/pkg\/350.zip?v=102","ver":"102","size":"1711394"},{"id":"278","name":"\u77f3\u5634\u5c71","pid":"30","areacode":"952","hot":0,"pys":"SZS","pyf":"Shizuishan","pkg":"http:\/\/s.dianhua.cn\/pkg\/278.zip?v=103","ver":"103","size":"832449"},{"id":"323","name":"\u5434\u5fe0","pid":"30","areacode":"953","hot":0,"pys":"WZ","pyf":"Wuzhong","pkg":"http:\/\/s.dianhua.cn\/pkg\/323.zip?v=103","ver":"103","size":"863582"},{"id":"62","name":"\u94f6\u5ddd","pid":"30","areacode":"951","hot":0,"pys":"YC","pyf":"Yinchuan","pkg":"http:\/\/s.dianhua.cn\/pkg\/62.zip?v=103","ver":"103","size":"1478623"},{"id":"321","name":"\u4e2d\u536b","pid":"30","areacode":"955","hot":0,"pys":"ZW","pyf":"Zhongwei","pkg":"http:\/\/s.dianhua.cn\/pkg\/321.zip?v=103","ver":"103","size":"779308"},{"id":"352","name":"\u679c\u6d1b","pid":"29","areacode":"975","hot":0,"pys":"GLCZ","pyf":"Guoluo","pkg":"http:\/\/s.dianhua.cn\/pkg\/352.zip?v=103","ver":"103","size":"652892"},{"id":"347","name":"\u6d77\u5317","pid":"29","areacode":"970","hot":0,"pys":"HBCZ","pyf":"Haibei","pkg":"http:\/\/s.dianhua.cn\/pkg\/347.zip?v=103","ver":"103","size":"671023"},{"id":"338","name":"\u6d77\u4e1c","pid":"29","areacode":"972","hot":0,"pys":"HDDQ","pyf":"Haidong","pkg":"http:\/\/s.dianhua.cn\/pkg\/338.zip?v=102","ver":"102","size":"1574176"},{"id":"366","name":"\u6d77\u5357","pid":"29","areacode":"974","hot":0,"pys":"HNCZ","pyf":"Hainanzhou","pkg":"http:\/\/s.dianhua.cn\/pkg\/366.zip?v=103","ver":"103","size":"710109"},{"id":"313","name":"\u6d77\u897f","pid":"29","areacode":"977","hot":0,"pys":"HXMG","pyf":"Haixi","pkg":"http:\/\/s.dianhua.cn\/pkg\/313.zip?v=103","ver":"103","size":"794052"},{"id":"359","name":"\u9ec4\u5357","pid":"29","areacode":"973","hot":0,"pys":"HNCZ","pyf":"Huangnan","pkg":"http:\/\/s.dianhua.cn\/pkg\/359.zip?v=103","ver":"103","size":"657006"},{"id":"46","name":"\u897f\u5b81","pid":"29","areacode":"971","hot":0,"pys":"XN","pyf":"Xining","pkg":"http:\/\/s.dianhua.cn\/pkg\/46.zip?v=102","ver":"102","size":"1538503"},{"id":"354","name":"\u7389\u6811","pid":"29","areacode":"976","hot":0,"pys":"YSCZ","pyf":"Yushu","pkg":"http:\/\/s.dianhua.cn\/pkg\/354.zip?v=103","ver":"103","size":"654103"},{"id":"155","name":"\u963f\u575d","pid":"23","areacode":"837","hot":0,"pys":"ABCZ","pyf":"Aba","pkg":"http:\/\/s.dianhua.cn\/pkg\/155.zip?v=104","ver":"104","size":"852204"},{"id":"210","name":"\u5df4\u4e2d","pid":"23","areacode":"827","hot":0,"pys":"BZ","pyf":"Bazhong","pkg":"http:\/\/s.dianhua.cn\/pkg\/210.zip?v=104","ver":"104","size":"921129"},{"id":"8","name":"\u6210\u90fd","pid":"23","areacode":"28","hot":1,"pys":"CD","pyf":"Chengdu","pkg":"http:\/\/s.dianhua.cn\/pkg\/8.zip?v=105","ver":"105","size":"3654834"},{"id":"126","name":"\u8fbe\u5dde","pid":"23","areacode":"818","hot":0,"pys":"DZ","pyf":"Dazhou","pkg":"http:\/\/s.dianhua.cn\/pkg\/126.zip?v=104","ver":"104","size":"1183404"},{"id":"106","name":"\u5fb7\u9633","pid":"23","areacode":"838","hot":0,"pys":"DY","pyf":"Deyang","pkg":"http:\/\/s.dianhua.cn\/pkg\/106.zip?v=103","ver":"103","size":"1417005"},{"id":"217","name":"\u7518\u5b5c","pid":"23","areacode":"836","hot":0,"pys":"GZ","pyf":"Ganzizhou","pkg":"http:\/\/s.dianhua.cn\/pkg\/217.zip?v=103","ver":"103","size":"772012"},{"id":"159","name":"\u5e7f\u5b89","pid":"23","areacode":"826","hot":0,"pys":"GA","pyf":"Guangan","pkg":"http:\/\/s.dianhua.cn\/pkg\/159.zip?v=104","ver":"104","size":"1176337"},{"id":"189","name":"\u5e7f\u5143","pid":"23","areacode":"839","hot":0,"pys":"GY","pyf":"Guangyuan","pkg":"http:\/\/s.dianhua.cn\/pkg\/189.zip?v=103","ver":"103","size":"1033783"},{"id":"86","name":"\u4e50\u5c71","pid":"23","areacode":"833","hot":0,"pys":"LS","pyf":"Leshan","pkg":"http:\/\/s.dianhua.cn\/pkg\/86.zip?v=103","ver":"103","size":"1303016"},{"id":"135","name":"\u51c9\u5c71","pid":"23","areacode":"834","hot":0,"pys":"LSYZ","pyf":"Liangshan","pkg":"http:\/\/s.dianhua.cn\/pkg\/135.zip?v=104","ver":"104","size":"1060579"},{"id":"164","name":"\u6cf8\u5dde","pid":"23","areacode":"830","hot":0,"pys":"LZ","pyf":"Luzhou","pkg":"http:\/\/s.dianhua.cn\/pkg\/164.zip?v=104","ver":"104","size":"1184826"},{"id":"180","name":"\u7709\u5c71","pid":"23","areacode":"28","hot":0,"pys":"MS","pyf":"Meishan","pkg":"http:\/\/s.dianhua.cn\/pkg\/180.zip?v=103","ver":"103","size":"996130"},{"id":"73","name":"\u7ef5\u9633","pid":"23","areacode":"816","hot":0,"pys":"MY","pyf":"Mianyang","pkg":"http:\/\/s.dianhua.cn\/pkg\/73.zip?v=102","ver":"102","size":"1643978"},{"id":"110","name":"\u5357\u5145","pid":"23","areacode":"817","hot":0,"pys":"NC","pyf":"Nanchong","pkg":"http:\/\/s.dianhua.cn\/pkg\/110.zip?v=104","ver":"104","size":"1411136"},{"id":"166","name":"\u5185\u6c5f","pid":"23","areacode":"832","hot":0,"pys":"NJ","pyf":"Neijiang","pkg":"http:\/\/s.dianhua.cn\/pkg\/166.zip?v=103","ver":"103","size":"1035124"},{"id":"160","name":"\u6500\u679d\u82b1","pid":"23","areacode":"812","hot":0,"pys":"PZH","pyf":"Panzhihua","pkg":"http:\/\/s.dianhua.cn\/pkg\/160.zip?v=103","ver":"103","size":"998318"},{"id":"146","name":"\u9042\u5b81","pid":"23","areacode":"825","hot":0,"pys":"SN","pyf":"Suining","pkg":"http:\/\/s.dianhua.cn\/pkg\/146.zip?v=104","ver":"104","size":"1175914"},{"id":"157","name":"\u96c5\u5b89","pid":"23","areacode":"835","hot":0,"pys":"YA","pyf":"Yaan","pkg":"http:\/\/s.dianhua.cn\/pkg\/157.zip?v=103","ver":"103","size":"1027134"},{"id":"130","name":"\u5b9c\u5bbe","pid":"23","areacode":"831","hot":0,"pys":"YB","pyf":"Yibin","pkg":"http:\/\/s.dianhua.cn\/pkg\/130.zip?v=103","ver":"103","size":"1209146"},{"id":"100","name":"\u81ea\u8d21","pid":"23","areacode":"813","hot":0,"pys":"ZG","pyf":"Zigong","pkg":"http:\/\/s.dianhua.cn\/pkg\/100.zip?v=103","ver":"103","size":"1004146"},{"id":"211","name":"\u8d44\u9633","pid":"23","areacode":"28","hot":0,"pys":"ZY","pyf":"Ziyang","pkg":"http:\/\/s.dianhua.cn\/pkg\/211.zip?v=104","ver":"104","size":"804635"},{"id":"144","name":"\u6ee8\u5dde","pid":"15","areacode":"543","hot":0,"pys":"BZ","pyf":"Binzhou","pkg":"http:\/\/s.dianhua.cn\/pkg\/144.zip?v=103","ver":"103","size":"1177918"},{"id":"87","name":"\u5fb7\u5dde","pid":"15","areacode":"534","hot":0,"pys":"DZ","pyf":"Dezhou","pkg":"http:\/\/s.dianhua.cn\/pkg\/87.zip?v=103","ver":"103","size":"1354706"},{"id":"99","name":"\u4e1c\u8425","pid":"15","areacode":"546","hot":0,"pys":"DY","pyf":"Dongying","pkg":"http:\/\/s.dianhua.cn\/pkg\/99.zip?v=104","ver":"104","size":"1371656"},{"id":"191","name":"\u83cf\u6cfd","pid":"15","areacode":"530","hot":0,"pys":"HZ","pyf":"Heze","pkg":"http:\/\/s.dianhua.cn\/pkg\/191.zip?v=103","ver":"103","size":"1243413"},{"id":"16","name":"\u6d4e\u5357","pid":"15","areacode":"531","hot":0,"pys":"JN","pyf":"Jinan","pkg":"http:\/\/s.dianhua.cn\/pkg\/16.zip?v=104","ver":"104","size":"2961753"},{"id":"89","name":"\u6d4e\u5b81","pid":"15","areacode":"537","hot":0,"pys":"JN","pyf":"Jining","pkg":"http:\/\/s.dianhua.cn\/pkg\/89.zip?v=103","ver":"103","size":"1689088"},{"id":"265","name":"\u83b1\u829c","pid":"15","areacode":"634","hot":0,"pys":"LW","pyf":"Laiwu","pkg":"http:\/\/s.dianhua.cn\/pkg\/265.zip?v=103","ver":"103","size":"1070434"},{"id":"125","name":"\u804a\u57ce","pid":"15","areacode":"635","hot":0,"pys":"LC","pyf":"Liaocheng","pkg":"http:\/\/s.dianhua.cn\/pkg\/125.zip?v=104","ver":"104","size":"1245908"},{"id":"85","name":"\u4e34\u6c82","pid":"15","areacode":"539","hot":0,"pys":"LY","pyf":"Linyi","pkg":"http:\/\/s.dianhua.cn\/pkg\/85.zip?v=103","ver":"103","size":"1563225"},{"id":"18","name":"\u9752\u5c9b","pid":"15","areacode":"532","hot":0,"pys":"QD","pyf":"Qingdao","pkg":"http:\/\/s.dianhua.cn\/pkg\/18.zip?v=103","ver":"103","size":"3127812"},{"id":"109","name":"\u65e5\u7167","pid":"15","areacode":"633","hot":0,"pys":"RZ","pyf":"Rizhao","pkg":"http:\/\/s.dianhua.cn\/pkg\/109.zip?v=103","ver":"103","size":"1203083"},{"id":"83","name":"\u6cf0\u5b89","pid":"15","areacode":"538","hot":0,"pys":"TA","pyf":"Taian","pkg":"http:\/\/s.dianhua.cn\/pkg\/83.zip?v=103","ver":"103","size":"1427653"},{"id":"63","name":"\u6f4d\u574a","pid":"15","areacode":"536","hot":0,"pys":"WF","pyf":"Weifang","pkg":"http:\/\/s.dianhua.cn\/pkg\/63.zip?v=104","ver":"104","size":"1744957"},{"id":"64","name":"\u5a01\u6d77","pid":"15","areacode":"631","hot":0,"pys":"WH","pyf":"Weihai","pkg":"http:\/\/s.dianhua.cn\/pkg\/64.zip?v=104","ver":"104","size":"1560978"},{"id":"56","name":"\u70df\u53f0","pid":"15","areacode":"535","hot":0,"pys":"YT","pyf":"Yantai","pkg":"http:\/\/s.dianhua.cn\/pkg\/56.zip?v=103","ver":"103","size":"1768057"},{"id":"140","name":"\u67a3\u5e84","pid":"15","areacode":"632","hot":0,"pys":"ZZ","pyf":"Zaozhuang","pkg":"http:\/\/s.dianhua.cn\/pkg\/140.zip?v=103","ver":"103","size":"1227189"},{"id":"81","name":"\u6dc4\u535a","pid":"15","areacode":"533","hot":0,"pys":"ZB","pyf":"Zibo","pkg":"http:\/\/s.dianhua.cn\/pkg\/81.zip?v=103","ver":"103","size":"1704714"},{"id":"255","name":"\u5b89\u5eb7","pid":"27","areacode":"915","hot":0,"pys":"AK","pyf":"Ankang","pkg":"http:\/\/s.dianhua.cn\/pkg\/255.zip?v=103","ver":"103","size":"950020"},{"id":"101","name":"\u5b9d\u9e21","pid":"27","areacode":"917","hot":0,"pys":"BJ","pyf":"Baoji","pkg":"http:\/\/s.dianhua.cn\/pkg\/101.zip?v=104","ver":"104","size":"1255204"},{"id":"206","name":"\u957f\u6cbb","pid":"4","areacode":"355","hot":0,"pys":"CZ","pyf":"Changzhi","pkg":"http:\/\/s.dianhua.cn\/pkg\/206.zip?v=104","ver":"104","size":"1153972"},{"id":"98","name":"\u5927\u540c","pid":"4","areacode":"352","hot":0,"pys":"DT","pyf":"Datong","pkg":"http:\/\/s.dianhua.cn\/pkg\/98.zip?v=103","ver":"103","size":"1159647"},{"id":"188","name":"\u6c49\u4e2d","pid":"27","areacode":"916","hot":0,"pys":"HZ","pyf":"Hanzhong","pkg":"http:\/\/s.dianhua.cn\/pkg\/188.zip?v=104","ver":"104","size":"1111848"},{"id":"267","name":"\u664b\u57ce","pid":"4","areacode":"356","hot":0,"pys":"JC","pyf":"Jincheng","pkg":"http:\/\/s.dianhua.cn\/pkg\/267.zip?v=103","ver":"103","size":"1010852"},{"id":"198","name":"\u664b\u4e2d","pid":"4","areacode":"354","hot":0,"pys":"JZ","pyf":"Jinzhong","pkg":"http:\/\/s.dianhua.cn\/pkg\/198.zip?v=103","ver":"103","size":"1231776"},{"id":"192","name":"\u4e34\u6c7e","pid":"4","areacode":"357","hot":0,"pys":"LF","pyf":"Linfen","pkg":"http:\/\/s.dianhua.cn\/pkg\/192.zip?v=104","ver":"104","size":"1357897"},{"id":"152","name":"\u5415\u6881","pid":"4","areacode":"358","hot":0,"pys":"LL","pyf":"Lvliang","pkg":"http:\/\/s.dianhua.cn\/pkg\/152.zip?v=104","ver":"104","size":"1032134"},{"id":"317","name":"\u5546\u6d1b","pid":"27","areacode":"914","hot":0,"pys":"SL","pyf":"Shangluo","pkg":"http:\/\/s.dianhua.cn\/pkg\/317.zip?v=103","ver":"103","size":"847705"},{"id":"294","name":"\u6714\u5dde","pid":"4","areacode":"349","hot":0,"pys":"SZ","pyf":"Shuozhou","pkg":"http:\/\/s.dianhua.cn\/pkg\/294.zip?v=103","ver":"103","size":"914379"},{"id":"32","name":"\u592a\u539f","pid":"4","areacode":"351","hot":0,"pys":"TY","pyf":"Taiyuan","pkg":"http:\/\/s.dianhua.cn\/pkg\/32.zip?v=104","ver":"104","size":"2367279"},{"id":"315","name":"\u94dc\u5ddd","pid":"27","areacode":"919","hot":0,"pys":"TC","pyf":"Tongchuan","pkg":"http:\/\/s.dianhua.cn\/pkg\/315.zip?v=102","ver":"102","size":"1701472"},{"id":"172","name":"\u6e2d\u5357","pid":"27","areacode":"913","hot":0,"pys":"WN","pyf":"Weinan","pkg":"http:\/\/s.dianhua.cn\/pkg\/172.zip?v=104","ver":"104","size":"1335313"},{"id":"12","name":"\u897f\u5b89","pid":"27","areacode":"29","hot":1,"pys":"XA","pyf":"Xian","pkg":"http:\/\/s.dianhua.cn\/pkg\/12.zip?v=103","ver":"103","size":"3563813"},{"id":"105","name":"\u54b8\u9633","pid":"27","areacode":"29","hot":0,"pys":"XY","pyf":"Xianyang","pkg":"http:\/\/s.dianhua.cn\/pkg\/105.zip?v=103","ver":"103","size":"1249506"},{"id":"271","name":"\u5ffb\u5dde","pid":"4","areacode":"350","hot":0,"pys":"XZ","pyf":"Xinzhou","pkg":"http:\/\/s.dianhua.cn\/pkg\/271.zip?v=102","ver":"102","size":"2239897"},{"id":"202","name":"\u5ef6\u5b89","pid":"27","areacode":"911","hot":0,"pys":"YA","pyf":"Yanan","pkg":"http:\/\/s.dianhua.cn\/pkg\/202.zip?v=104","ver":"104","size":"1074520"},{"id":"209","name":"\u9633\u6cc9","pid":"4","areacode":"353","hot":0,"pys":"YQ","pyf":"Yangquan","pkg":"http:\/\/s.dianhua.cn\/pkg\/209.zip?v=104","ver":"104","size":"935918"},{"id":"221","name":"\u6986\u6797","pid":"27","areacode":"912","hot":0,"pys":"YL","pyf":"Yulinshanxi","pkg":"http:\/\/s.dianhua.cn\/pkg\/221.zip?v=103","ver":"103","size":"1185821"},{"id":"205","name":"\u8fd0\u57ce","pid":"4","areacode":"359","hot":0,"pys":"YC","pyf":"Yuncheng","pkg":"http:\/\/s.dianhua.cn\/pkg\/205.zip?v=104","ver":"104","size":"1312102"},{"id":"336","name":"\u963f\u91cc","pid":"26","areacode":"897","hot":0,"pys":"ALDQ","pyf":"Ali","pkg":"http:\/\/s.dianhua.cn\/pkg\/336.zip?v=103","ver":"103","size":"660347"},{"id":"356","name":"\u660c\u90fd","pid":"26","areacode":"895","hot":0,"pys":"CDDQ","pyf":"Changdu","pkg":"http:\/\/s.dianhua.cn\/pkg\/356.zip?v=103","ver":"103","size":"703445"},{"id":"77","name":"\u62c9\u8428","pid":"26","areacode":"891","hot":0,"pys":"LS","pyf":"Lasa","pkg":"http:\/\/s.dianhua.cn\/pkg\/77.zip?v=104","ver":"104","size":"1159254"},{"id":"253","name":"\u6797\u829d","pid":"26","areacode":"894","hot":0,"pys":"LZDQ","pyf":"Linzhi","pkg":"http:\/\/s.dianhua.cn\/pkg\/253.zip?v=103","ver":"103","size":"723652"},{"id":"351","name":"\u90a3\u66f2","pid":"26","areacode":"896","hot":0,"pys":"NQDQ","pyf":"Naqu","pkg":"http:\/\/s.dianhua.cn\/pkg\/351.zip?v=103","ver":"103","size":"682586"},{"id":"290","name":"\u65e5\u5580\u5219","pid":"26","areacode":"892","hot":0,"pys":"RKZD","pyf":"Rikaze","pkg":"http:\/\/s.dianhua.cn\/pkg\/290.zip?v=103","ver":"103","size":"787312"},{"id":"341","name":"\u5c71\u5357","pid":"26","areacode":"893","hot":0,"pys":"SNDQ","pyf":"Shannan","pkg":"http:\/\/s.dianhua.cn\/pkg\/341.zip?v=103","ver":"103","size":"674416"},{"id":"307","name":"\u963f\u514b\u82cf","pid":"31","areacode":"997","hot":0,"pys":"AKSD","pyf":"Akesu","pkg":"http:\/\/s.dianhua.cn\/pkg\/307.zip?v=103","ver":"103","size":"952685"},{"id":"364","name":"\u963f\u62c9\u5c14","pid":"31","areacode":"997","hot":0,"pys":"ALE","pyf":"Alaer","pkg":"http:\/\/s.dianhua.cn\/pkg\/364.zip?v=103","ver":"103","size":"644102"},{"id":"273","name":"\u963f\u52d2\u6cf0","pid":"31","areacode":"906","hot":0,"pys":"ALTD","pyf":"Aletai","pkg":"http:\/\/s.dianhua.cn\/pkg\/273.zip?v=103","ver":"103","size":"815874"},{"id":"136","name":"\u5df4\u97f3\u90ed\u695e","pid":"31","areacode":"996","hot":0,"pys":"BYGL","pyf":"Bayinguoleng","pkg":"http:\/\/s.dianhua.cn\/pkg\/136.zip?v=104","ver":"104","size":"954073"},{"id":"339","name":"\u535a\u5c14\u5854\u62c9","pid":"31","areacode":"909","hot":0,"pys":"BETL","pyf":"Boertala","pkg":"http:\/\/s.dianhua.cn\/pkg\/339.zip?v=103","ver":"103","size":"716429"},{"id":"283","name":"\u660c\u5409","pid":"31","areacode":"994","hot":0,"pys":"JC","pyf":"Changjizhou","pkg":"http:\/\/s.dianhua.cn\/pkg\/283.zip?v=103","ver":"103","size":"1011177"},{"id":"285","name":"\u54c8\u5bc6","pid":"31","areacode":"902","hot":0,"pys":"HMDQ","pyf":"Hami","pkg":"http:\/\/s.dianhua.cn\/pkg\/285.zip?v=103","ver":"103","size":"868161"},{"id":"329","name":"\u548c\u7530","pid":"31","areacode":"903","hot":0,"pys":"HTDQ","pyf":"Hetian","pkg":"http:\/\/s.dianhua.cn\/pkg\/329.zip?v=103","ver":"103","size":"863019"},{"id":"246","name":"\u5580\u4ec0","pid":"31","areacode":"998","hot":0,"pys":"KSDQ","pyf":"Kashi","pkg":"http:\/\/s.dianhua.cn\/pkg\/246.zip?v=103","ver":"103","size":"1063509"},{"id":"269","name":"\u514b\u62c9\u739b\u4f9d","pid":"31","areacode":"990","hot":0,"pys":"KLMY","pyf":"Kelamayi","pkg":"http:\/\/s.dianhua.cn\/pkg\/269.zip?v=103","ver":"103","size":"895663"},{"id":"365","name":"\u514b\u5b5c\u52d2\u82cf","pid":"31","areacode":"908","hot":0,"pys":"KZLS","pyf":"Kezilesu","pkg":"http:\/\/s.dianhua.cn\/pkg\/365.zip?v=103","ver":"103","size":"661127"},{"id":"277","name":"\u77f3\u6cb3\u5b50","pid":"31","areacode":"993","hot":0,"pys":"SHZ","pyf":"Shihezi","pkg":"http:\/\/s.dianhua.cn\/pkg\/277.zip?v=102","ver":"102","size":"1657418"},{"id":"322","name":"\u5854\u57ce","pid":"31","areacode":"901","hot":0,"pys":"TCDQ","pyf":"Tacheng","pkg":"http:\/\/s.dianhua.cn\/pkg\/322.zip?v=103","ver":"103","size":"795662"},{"id":"305","name":"\u5410\u9c81\u756a","pid":"31","areacode":"995","hot":0,"pys":"TLFD","pyf":"Tulufan","pkg":"http:\/\/s.dianhua.cn\/pkg\/305.zip?v=103","ver":"103","size":"784667"},{"id":"368","name":"\u56fe\u6728\u8212\u514b","pid":"31","areacode":"998","hot":0,"pys":"TMSK","pyf":"Tumushuke","pkg":"http:\/\/s.dianhua.cn\/pkg\/368.zip?v=103","ver":"103","size":"641615"},{"id":"43","name":"\u4e4c\u9c81\u6728\u9f50","pid":"31","areacode":"991","hot":0,"pys":"WLMQ","pyf":"Urumqi","pkg":"http:\/\/s.dianhua.cn\/pkg\/43.zip?v=103","ver":"103","size":"1882039"},{"id":"358","name":"\u4e94\u5bb6\u6e20","pid":"31","areacode":"994","hot":0,"pys":"WJQ","pyf":"Wujiaqu","pkg":"http:\/\/s.dianhua.cn\/pkg\/358.zip?v=103","ver":"103","size":"641071"},{"id":"259","name":"\u4f0a\u7281","pid":"31","areacode":"992","hot":0,"pys":"YL","pyf":"Yili","pkg":"http:\/\/s.dianhua.cn\/pkg\/259.zip?v=102","ver":"102","size":"2133932"},{"id":"203","name":"\u4fdd\u5c71","pid":"25","areacode":"875","hot":0,"pys":"BS","pyf":"Baoshan","pkg":"http:\/\/s.dianhua.cn\/pkg\/203.zip?v=104","ver":"104","size":"1001196"},{"id":"242","name":"\u695a\u96c4","pid":"25","areacode":"878","hot":0,"pys":"CX","pyf":"Chuxiongzhou","pkg":"http:\/\/s.dianhua.cn\/pkg\/242.zip?v=103","ver":"103","size":"937622"},{"id":"84","name":"\u5927\u7406","pid":"25","areacode":"872","hot":0,"pys":"DL","pyf":"Dali","pkg":"http:\/\/s.dianhua.cn\/pkg\/84.zip?v=103","ver":"103","size":"1268876"},{"id":"229","name":"\u5fb7\u5b8f","pid":"25","areacode":"692","hot":0,"pys":"DHDZ","pyf":"Dehong","pkg":"http:\/\/s.dianhua.cn\/pkg\/229.zip?v=103","ver":"103","size":"886850"},{"id":"177","name":"\u8fea\u5e86","pid":"25","areacode":"887","hot":0,"pys":"DQCZ","pyf":"Diqing","pkg":"http:\/\/s.dianhua.cn\/pkg\/177.zip?v=104","ver":"104","size":"772502"},{"id":"167","name":"\u7ea2\u6cb3","pid":"25","areacode":"873","hot":0,"pys":"HHHN","pyf":"Honghe","pkg":"http:\/\/s.dianhua.cn\/pkg\/167.zip?v=103","ver":"103","size":"934404"},{"id":"30","name":"\u6606\u660e","pid":"25","areacode":"871","hot":0,"pys":"KM","pyf":"Kunming","pkg":"http:\/\/s.dianhua.cn\/pkg\/30.zip?v=103","ver":"103","size":"2079203"},{"id":"50","name":"\u4e3d\u6c5f","pid":"25","areacode":"888","hot":0,"pys":"LJ","pyf":"Lijiang","pkg":"http:\/\/s.dianhua.cn\/pkg\/50.zip?v=103","ver":"103","size":"1168435"},{"id":"319","name":"\u4e34\u6ca7","pid":"25","areacode":"883","hot":0,"pys":"LC","pyf":"Lincang","pkg":"http:\/\/s.dianhua.cn\/pkg\/319.zip?v=102","ver":"102","size":"1757469"},{"id":"312","name":"\u6012\u6c5f","pid":"25","areacode":"886","hot":0,"pys":"NJLS","pyf":"Nujiang","pkg":"http:\/\/s.dianhua.cn\/pkg\/312.zip?v=103","ver":"103","size":"684416"},{"id":"331","name":"\u666e\u6d31","pid":"25","areacode":"879","hot":0,"pys":"PE","pyf":"Puer","pkg":"http:\/\/s.dianhua.cn\/pkg\/331.zip?v=103","ver":"103","size":"691476"},{"id":"251","name":"\u66f2\u9756","pid":"25","areacode":"874","hot":0,"pys":"QJ","pyf":"Qujing","pkg":"http:\/\/s.dianhua.cn\/pkg\/251.zip?v=103","ver":"103","size":"1185068"},{"id":"289","name":"\u6587\u5c71","pid":"25","areacode":"876","hot":0,"pys":"WSZ","pyf":"Wenshanzhou","pkg":"http:\/\/s.dianhua.cn\/pkg\/289.zip?v=102","ver":"102","size":"1837112"},{"id":"117","name":"\u897f\u53cc\u7248\u7eb3","pid":"25","areacode":"691","hot":0,"pys":"XSBN","pyf":"Xishuangbanna","pkg":"http:\/\/s.dianhua.cn\/pkg\/117.zip?v=103","ver":"103","size":"953685"},{"id":"208","name":"\u7389\u6eaa","pid":"25","areacode":"877","hot":0,"pys":"YX","pyf":"Yuxi","pkg":"http:\/\/s.dianhua.cn\/pkg\/208.zip?v=104","ver":"104","size":"1052817"},{"id":"249","name":"\u662d\u901a","pid":"25","areacode":"870","hot":0,"pys":"ZT","pyf":"Zhaotong","pkg":"http:\/\/s.dianhua.cn\/pkg\/249.zip?v=103","ver":"103","size":"1012727"},{"id":"10","name":"\u676d\u5dde","pid":"11","areacode":"571","hot":1,"pys":"HZ","pyf":"Hangzhou","pkg":"http:\/\/s.dianhua.cn\/pkg\/10.zip?v=104","ver":"104","size":"3631372"},{"id":"76","name":"\u6e56\u5dde","pid":"11","areacode":"572","hot":0,"pys":"HZ","pyf":"Huzhou","pkg":"http:\/\/s.dianhua.cn\/pkg\/76.zip?v=104","ver":"104","size":"1584959"},{"id":"45","name":"\u5609\u5174","pid":"11","areacode":"573","hot":0,"pys":"JX","pyf":"Jiaxing","pkg":"http:\/\/s.dianhua.cn\/pkg\/45.zip?v=102","ver":"102","size":"1869434"},{"id":"65","name":"\u91d1\u534e","pid":"11","areacode":"579","hot":0,"pys":"JH","pyf":"Jinhua","pkg":"http:\/\/s.dianhua.cn\/pkg\/65.zip?v=103","ver":"103","size":"1936702"},{"id":"201","name":"\u4e3d\u6c34","pid":"11","areacode":"578","hot":0,"pys":"LS","pyf":"Lishui","pkg":"http:\/\/s.dianhua.cn\/pkg\/201.zip?v=103","ver":"103","size":"1351551"},{"id":"25","name":"\u5b81\u6ce2","pid":"11","areacode":"574","hot":0,"pys":"NB","pyf":"Ningbo","pkg":"http:\/\/s.dianhua.cn\/pkg\/25.zip?v=104","ver":"104","size":"3078141"},{"id":"162","name":"\u8862\u5dde","pid":"11","areacode":"570","hot":0,"pys":"QZ","pyf":"Quzhou","pkg":"http:\/\/s.dianhua.cn\/pkg\/162.zip?v=103","ver":"103","size":"1295687"},{"id":"47","name":"\u7ecd\u5174","pid":"11","areacode":"575","hot":0,"pys":"SX","pyf":"Shaoxing","pkg":"http:\/\/s.dianhua.cn\/pkg\/47.zip?v=103","ver":"103","size":"1752408"},{"id":"69","name":"\u53f0\u5dde","pid":"11","areacode":"576","hot":0,"pys":"TZ","pyf":"Taizhou","pkg":"http:\/\/s.dianhua.cn\/pkg\/69.zip?v=104","ver":"104","size":"1703547"},{"id":"40","name":"\u6e29\u5dde","pid":"11","areacode":"577","hot":0,"pys":"WZ","pyf":"Wenzhou","pkg":"http:\/\/s.dianhua.cn\/pkg\/40.zip?v=103","ver":"103","size":"2216646"},{"id":"68","name":"\u821f\u5c71","pid":"11","areacode":"580","hot":0,"pys":"ZS","pyf":"Zhoushan","pkg":"http:\/\/s.dianhua.cn\/pkg\/68.zip?v=103","ver":"103","size":"1218093"}],"provinces":[{"id":"1","name":"\u5317\u4eac"},{"id":"2","name":"\u5929\u6d25"},{"id":"9","name":"\u4e0a\u6d77"},{"id":"22","name":"\u91cd\u5e86"},{"id":"12","name":"\u5b89\u5fbd"},{"id":"33","name":"\u6fb3\u95e8"},{"id":"13","name":"\u798f\u5efa"},{"id":"19","name":"\u5e7f\u4e1c"},{"id":"28","name":"\u7518\u8083"},{"id":"20","name":"\u5e7f\u897f"},{"id":"24","name":"\u8d35\u5dde"},{"id":"17","name":"\u6e56\u5317"},{"id":"3","name":"\u6cb3\u5317"},{"id":"8","name":"\u9ed1\u9f99\u6c5f"},{"id":"18","name":"\u6e56\u5357"},{"id":"21","name":"\u6d77\u5357"},{"id":"16","name":"\u6cb3\u5357"},{"id":"7","name":"\u5409\u6797"},{"id":"10","name":"\u6c5f\u82cf"},{"id":"14","name":"\u6c5f\u897f"},{"id":"6","name":"\u8fbd\u5b81"},{"id":"5","name":"\u5185\u8499\u53e4"},{"id":"30","name":"\u5b81\u590f"},{"id":"29","name":"\u9752\u6d77"},{"id":"23","name":"\u56db\u5ddd"},{"id":"15","name":"\u5c71\u4e1c"},{"id":"4","name":"\u5c71\u897f"},{"id":"27","name":"\u9655\u897f"},{"id":"34","name":"\u53f0\u6e7e"},{"id":"26","name":"\u897f\u85cf"},{"id":"32","name":"\u9999\u6e2f"},{"id":"31","name":"\u65b0\u7586"},{"id":"25","name":"\u4e91\u5357"},{"id":"11","name":"\u6d59\u6c5f"}],"offline":{"pkg_ver":"0","pkg_url":"?v=0","pkg_size":"0"}}